[{"OBJECT_NAME":"QIANFAN-69","OBJECT_ID":"2025-016Q","EPOCH":"2026-03-09T22:40:38.757792","MEAN_MOTION":13.51005589,"ECCENTRICITY":0.00179962,"INCLINATION":88.9663,"RA_OF_ASC_NODE":93.9218,"ARG_OF_PERICENTER":93.4573,"MEAN_ANOMALY":266.8637,"EPHEMERIS_TYPE":0,"CLASSIFICATION_TYPE":"U","NORAD_CAT_ID":62799,"ELEMENT_SET_NO":999,"REV_AT_EPOCH":5905,"BSTAR":5.4402132e-5,"MEAN_MOTION_DOT":4.7e-7,"MEAN_MOTION_DDOT":0},{"OBJECT_NAME":"SCOUT G-1 DEB","OBJECT_ID":"1988-074M","EPOCH":"2026-03-02T01:50:26.358144","MEAN_MOTION":13.48922164,"ECCENTRICITY":0.00891718,"INCLINATION":89.9543,"RA_OF_ASC_NODE":358.6657,"ARG_OF_PERICENTER":194.8587,"MEAN_ANOMALY":164.9941,"EPHEMERIS_TYPE":0,"CLASSIFICATION_TYPE":"U","NORAD_CAT_ID":28676,"ELEMENT_SET_NO":999,"REV_AT_EPOCH":62516,"BSTAR":0.0015093956,"MEAN_MOTION_DOT":9.76e-6,"MEAN_MOTION_DDOT":0}]
